0 TELSTAR 401
1 22927U 93077A   13281.35193939 -.00000084  00000-0  10000-3 0  2018
2 22927 013.3027 034.5442 0009665 044.5634 315.5148 01.00286507 72100
0 TELSTAR 401
1 22927U 93077A   13284.34324498 -.00000092  00000-0  10000-3 0  2026
2 22927 013.3069 034.5094 0009465 044.5061 315.5709 01.00286619 72131
0 TELSTAR 401
1 22927U 93077A   13286.33744199 -.00000095  00000-0  10000-3 0  2035
2 22927 013.3097 034.4862 0009216 043.9097 316.1613 01.00286670 72150
0 TELSTAR 401
1 22927U 93077A   13287.33452729 -.00000096  00000-0  10000-3 0  2043
2 22927 013.3110 034.4749 0008949 042.7025 317.3561 01.00286663 72168
0 TELSTAR 401
1 22927U 93077A   13290.32578090 -.00000097  00000-0  10000-3 0  2058
2 22927 013.3153 034.4396 0008964 042.4195 317.6230 01.00286780 72194
0 TELSTAR 401
1 22927U 93077A   13293.31704551 -.00000095  00000-0  10000-3 0  2062
2 22927 013.3198 034.4043 0008844 042.0512 317.9812 01.00286917 72223
0 TELSTAR 401
1 22927U 93077A   13295.31124482 -.00000092  00000-0  10000-3 0  2071
2 22927 013.3228 034.3808 0008456 041.6789 318.3539 01.00287008 72240
